PERSEUS-M1              
1 40039U 14033AF  26160.34230990  .00001566  00000+0  14637-3 0  9993
2 40039  97.9644 104.3459 0010780 331.1893  28.8731 14.95609374649463
POLYITAN-1              
1 40042U 14033AJ  26160.35067293  .00017064  00000+0  53731-3 0  9990
2 40042  98.0953 185.8720 0008024 164.0960 196.0533 15.32980503652395
TIGRISAT                
1 40043U 14033AK  26160.36777266  .00002126  00000+0  24914-3 0  9994
2 40043  97.7823 310.5595 0050696 100.1646 260.5292 14.85131645644469
AEROCUBE 6A             
1 40045U 14033AM  26160.34225895  .00005160  00000+0  43491-3 0  9992
2 40045  97.7224 327.3751 0039349  44.0714 316.3633 14.98021109645445
AEROCUBE 6B             
1 40046U 14033AN  26160.35224349  .00005861  00000+0  47495-3 0  9993
2 40046  97.7232 327.1573 0038933  35.9586 324.4245 14.99486502645586
CANX-4                  
1 40055U 14034C   26160.38355200  .00000839  00000+0  11496-3 0  9990
2 40055  98.3132  35.4098 0013670  40.8785 319.3449 14.81250099643375
CANX-5                  
1 40056U 14034D   26160.38207572  .00000850  00000+0  11623-3 0  9994
2 40056  98.3135  35.4515 0013681  41.0004 319.2233 14.81267261634180
UKUBE-1                 
1 40074U 14037F   26160.49913182  .00008079  00000+0  45635-3 0  9991
2 40074  98.4238 162.9637 0002150 144.6961 215.4410 15.13429238647398
BRITE-PL2 (HEWELIUSZ)   
1 40119U 14049B   26160.54008978  .00001894  00000+0  18026-3 0  9990
2 40119  97.9090 272.4818 0015166 131.1884 229.0646 14.94569959640301
AEROCUBE 5C             
1 40965U 15058B   26160.45965517  .00002298  00000+0  21012-3 0  9999
2 40965  64.7678 286.6293 0130454  66.3052 295.1686 14.91417272364502
AEROCUBE 7              
1 40966U 15058C   26160.54489061  .00003168  00000+0  25974-3 0  9993
2 40966  64.7627 268.7521 0120169  64.7453 296.6058 14.95677065364816
FOX-1A (AO-85)          
1 40967U 15058D   26160.50473677  .00002485  00000+0  22900-3 0  9993
2 40967  64.7758 302.8578 0130003  59.6042 301.7845 14.90932457112423
SINOD-D 1               
1 40968U 15058E   26160.52375954  .00003174  00000+0  25988-3 0  9990
2 40968  64.7759 282.9106 0118605  56.1390 305.0942 14.95856209115515
SNAP-3 ALICE            
1 40970U 15058G   26160.28454996  .00107658  00000+0  13677-2 0  9993
2 40970  64.7496 131.2113 0030360  16.9431 343.2720 15.58274483115652
LMRST-SAT               
1 40971U 15058H   26160.52518099  .00002284  00000+0  21297-3 0  9993
2 40971  64.7764 299.1177 0131678  61.6128 299.8185 14.90555137112414
SNAP-3 EDDIE            
1 40972U 15058J   26160.28080398  .00107828  00000+0  13103-2 0  9999
2 40972  64.7419 122.0068 0030185  21.1073 339.1310 15.59448461117797
PROPCUBE 3              
1 40973U 15058K   26160.51262599  .00002739  00000+0  23362-3 0  9995
2 40973  64.7691 276.5132 0123690  62.9474 298.4199 14.94214515113651
BISONSAT                
1 40974U 15058L   26160.44749113  .00008692  00000+0  42588-3 0  9995
2 40974  64.7591 198.6642 0078452  50.4592 310.3430 15.16027465114440
SNAP-3 JIMI             
1 40975U 15058M   26160.40047813  .00003924  00000+0  27557-3 0  9992
2 40975  64.7650 244.4078 0105797  58.5507 302.5900 15.02231354113058
PROPCUBE 1 (FLORA)      
1 40976U 15058N   26160.54022502  .00002424  00000+0  23389-3 0  9999
2 40976  64.7754 318.9360 0130416  63.9157 297.5308 14.89186066115120
SINOD-D 3               
1 40977U 15058P   26160.54305680  .00003182  00000+0  27369-3 0  9995
2 40977  64.7734 299.6886 0118895  61.1740 300.1248 14.93967362113619
HORYU-4                 
1 41340U 16012D   26160.29259375  .00328479  00000+0  10049-2 0  9997
2 41340  30.9844 136.7554 0003255 219.0732 140.9694 15.90004490569557
RAVAN                   
1 41849U 16067B   26160.44697859  .00045410  00000+0  70240-3 0  9992
2 41849  97.9901  49.1286 0005562  52.3826 307.7930 15.53933589526493
CELTEE 1                
1 41850U 16067C   26160.37141009  .00004943  00000+0  23578-3 0  9995
2 41850  98.0677  26.4054 0000637 110.8167 249.3134 15.19605176524691
OPTICUBE 04             
1 41851U 16067D   26160.52302426  .00002262  00000+0  14469-3 0  9996
2 41851  98.0713  12.4071 0016533 139.6527 220.5931 15.09628455524014
AEROCUBE 8D             
1 41852U 16067E   26160.54095910  .00006636  00000+0  27486-3 0  9998
2 41852  98.0697  30.1309 0004250 142.2126 217.9408 15.24290359524907
AEROCUBE 8C             
1 41853U 16067F   26160.37028643  .00006979  00000+0  28670-3 0  9995
2 41853  98.0570  27.1850 0006818  89.9897 270.2120 15.24534072524871
CORVUS BC2              
1 42846U 17042X   26159.89095627  .00002800  00000+0  19451-3 0  9999
2 42846  97.4057 321.5648 0014217 135.9338 224.3026 15.06243536485814
CORVUS BC1              
1 42847U 17042Y   26160.41790511  .00002600  00000+0  18014-3 0  9996
2 42847  97.4082 322.8801 0013261 112.9498 247.3131 15.06412944485923
MAKERSAT 0              
1 43016U 17073D   26160.40717142  .00018066  00000+0  49467-3 0  9996
2 43016  97.4644  42.8658 0105840 301.2002  57.8898 15.31822725465274
